MEAN_MOTION;ECCENTRICITY;INCLINATION;RA_OF_ASC_NODE;ARG_OF_PERICENTER;MEAN_ANOMALY;BSTAR;MEAN_MOTION_DOT;MEAN_MOTION_DDOT;TYPE
14.72575734;0.0008556;48.4439;324.03;344.0499;16.0143;2.1439E-5;-6.4E-7;0;Orbcomm
14.72575736;0.0008553;48.4439;323.7111;344.3615;15.7032;2.1399E-5;-6.4E-7;0;Orbcomm
14.72575954;0.0008507;48.4437;319.2462;348.3644;11.707;2.1584E-5;-6.3E-7;0;Orbcomm
14.72576026;0.0008504;48.4437;317.9706;349.5508;10.5226;2.2029E-5;-6.0E-7;0;Orbcomm
14.72576241;0.0008472;48.4435;314.4624;352.7037;7.3751;2.2503E-5;-5.7E-7;0;Orbcomm
14.72576317;0.0008466;48.4435;313.1868;353.8974;6.1833;2.2956E-5;-5.4E-7;0;Orbcomm
14.72576448;0.0008445;48.4434;310.9543;355.8751;4.209;2.3303E-5;-5.2E-7;0;Orbcomm
14.72576502;0.000843;48.4434;309.9975;356.7442;3.3414;2.2981E-5;-5.4E-7;0;Orbcomm
14.72576673;0.0008403;48.4433;306.8082;359.6255;0.4649;2.2749E-5;-5.5E-7;0;Orbcomm
14.72576696;0.00084;48.4432;306.4893;359.9262;0.1648;2.2819E-5;-5.5E-7;0;Orbcomm
14.72576714;0.0008396;48.4432;306.1704;0.2248;359.8667;2.2558E-5;-5.7E-7;0;Orbcomm
14.72576984;0.0008353;48.4431;301.0676;4.8705;355.2287;2.1399E-5;-6.4E-7;0;Orbcomm
14.72577037;0.000835;48.4431;300.1109;5.7586;354.3421;2.1687E-5;-6.2E-7;0;Orbcomm
14.72577289;0.0008301;48.4429;295.9648;9.5421;350.5648;2.1172E-5;-6.5E-7;0;Orbcomm
14.72577605;0.0008273;48.4428;290.862;14.1781;345.9361;2.1794E-5;-6.1E-7;0;Orbcomm
14.72577605;0.0008273;48.4428;290.862;14.1781;345.9361;2.1794E-5;-6.1E-7;0;Orbcomm
14.72577796;0.0008243;48.4426;286.397;18.2628;341.8578;1.9374E-5;-7.7E-7;0;Orbcomm
14.72577849;0.0008239;48.4426;285.4403;19.1522;340.9698;1.9361E-5;-7.7E-7;0;Orbcomm
14.72578058;0.0008196;48.4425;281.932;22.3769;337.7499;1.9582E-5;-7.6E-7;0;Orbcomm
14.72578407;0.0008144;48.4424;277.1479;26.8116;333.3216;2.1937E-5;-6.1E-7;0;Orbcomm
14.72578429;0.0008146;48.4424;276.829;27.1052;333.0284;2.2179E-5;-5.9E-7;0;Orbcomm
14.72578594;0.0008117;48.4423;273.9585;29.7375;330.3997;2.2783E-5;-5.5E-7;0;Orbcomm
14.72578726;0.0008101;48.4423;271.4071;32.1523;327.9882;2.2717E-5;-5.5E-7;0;Orbcomm
14.72579007;0.0008068;48.4423;267.2609;36.0467;324.0987;2.389E-5;-4.8E-7;0;Orbcomm
14.72579135;0.0008048;48.4423;264.7094;38.4007;321.7477;2.3734E-5;-4.9E-7;0;Orbcomm
14.72579135;0.0008048;48.4423;264.7094;38.4007;321.7477;2.3734E-5;-4.9E-7;0;Orbcomm
14.72579403;0.0008017;48.4423;259.9254;42.9072;317.2464;2.3318E-5;-5.2E-7;0;Orbcomm
14.7257939;0.0008004;48.4423;259.2875;43.5527;316.6016;2.2158E-5;-5.9E-7;0;Orbcomm
14.72579752;0.0007959;48.4424;253.5468;48.9825;311.1774;2.2196E-5;-5.9E-7;0;Orbcomm
14.72580115;0.00079;48.4425;248.763;53.6034;306.5605;2.2082E-5;-6.0E-7;0;Orbcomm
14.72580139;0.0007895;48.4425;248.4441;53.9167;306.2476;2.1945E-5;-6.0E-7;0;Orbcomm
14.7258034;0.000786;48.4425;245.5737;56.6855;303.4808;2.1544E-5;-6.3E-7;0;Orbcomm
14.72580588;0.0007832;48.4425;241.4277;60.6268;299.5425;2.0881E-5;-6.7E-7;0;Orbcomm
14.7258069;0.0007822;48.4425;240.4709;61.5674;298.6026;2.1235E-5;-6.5E-7;0;Orbcomm
14.72581348;0.0007753;48.4426;231.86;69.862;290.3126;2.2879E-5;-5.4E-7;0;Orbcomm
14.72581387;0.0007759;48.4426;231.2222;70.4824;289.6925;2.275E-5;-5.5E-7;0;Orbcomm
14.72581684;0.0007735;48.4426;227.395;74.1316;286.0448;2.4353E-5;-4.5E-7;0;Orbcomm
14.72582187;0.0007725;48.4426;221.9734;79.3579;280.8203;2.7478E-5;-2.5E-7;0;Orbcomm
14.72582311;0.000775;48.4426;220.6978;80.5061;279.6727;2.826E-5;-2.0E-7;0;Orbcomm
14.72582656;0.0007736;48.4426;216.2329;84.7817;275.3977;2.8899E-5;-1.6E-7;0;Orbcomm
14.72582685;0.0007735;48.4426;215.914;85.0944;275.0851;2.8857E-5;-1.6E-7;0;Orbcomm
14.72582942;0.0007723;48.4427;212.7247;88.2364;271.9433;2.8833E-5;-1.6E-7;0;Orbcomm
14.725834;0.0007714;48.4428;208.2598;92.5691;267.6104;3.0875E-5;-3.0E-8;0;Orbcomm
14.72583429;0.0007715;48.4428;207.9409;92.8628;267.3167;3.1074E-5;-2.0E-8;0;Orbcomm
14.7258388;0.0007708;48.4428;203.4761;97.2059;262.9729;3.1911E-5;4.0E-8;0;Orbcomm
14.72584397;0.000771;48.4428;198.6923;101.7973;258.3804;3.3113E-5;1.1E-7;0;Orbcomm
14.72584873;0.000774;48.4428;193.9087;106.4103;253.766;3.2656E-5;9.0E-8;0;Orbcomm
14.72585344;0.000775;48.4427;188.1682;111.9039;248.2698;3.0366E-5;-6.0E-8;0;Orbcomm
14.72585655;0.0007758;48.4426;183.7034;116.189;243.982;2.807E-5;-2.1E-7;0;Orbcomm
14.72585924;0.0007773;48.4425;179.8762;119.9334;240.2351;2.7082E-5;-2.7E-7;0;Orbcomm
14.72586198;0.0007798;48.4423;175.0924;124.5146;235.6503;2.4967E-5;-4.1E-7;0;Orbcomm
14.72586583;0.0007816;48.4423;169.6708;129.682;230.4783;2.5171E-5;-4.0E-7;0;Orbcomm
14.72586852;0.0007837;48.4423;166.1626;132.9853;227.1717;2.5876E-5;-3.5E-7;0;Orbcomm
14.72587077;0.0007853;48.4422;162.6543;136.2908;223.8627;2.5616E-5;-3.7E-7;0;Orbcomm
14.72587227;0.0007866;48.4422;160.4219;138.3754;221.7758;2.5638E-5;-3.7E-7;0;Orbcomm
14.72587496;0.0007892;48.4422;156.2759;142.292;217.8546;2.5163E-5;-4.0E-7;0;Orbcomm
14.72587518;0.0007892;48.4422;155.957;142.5848;217.5615;2.5098E-5;-4.0E-7;0;Orbcomm
14.7258781;0.0007916;48.4422;151.1731;147.0475;213.0932;2.3703E-5;-4.9E-7;0;Orbcomm
14.72588047;0.0007946;48.4421;147.0271;150.9301;209.2054;2.2366E-5;-5.8E-7;0;Orbcomm
14.72588194;0.0007968;48.4421;143.8377;153.9184;206.2131;2.0368E-5;-7.0E-7;0;Orbcomm
14.72588273;0.0007971;48.4421;142.5621;155.0737;205.0561;2.0587E-5;-6.9E-7;0;Orbcomm
14.72588576;0.0008005;48.442;138.0971;159.2287;200.8952;2.1063E-5;-6.6E-7;0;Orbcomm
14.72588847;0.0008044;48.442;132.9942;163.9092;196.2077;2.0359E-5;-7.1E-7;0;Orbcomm
14.72588847;0.0008044;48.442;132.9942;163.9092;196.2077;2.0359E-5;-7.1E-7;0;Orbcomm
14.72589091;0.000808;48.442;128.2102;168.2968;191.8133;1.9934E-5;-7.3E-7;0;Orbcomm
14.72589324;0.0008117;48.442;123.4263;172.6331;187.4702;1.9355E-5;-7.7E-7;0;Orbcomm
14.72589613;0.0008152;48.4421;118.9612;176.6781;183.4186;2.1075E-5;-6.6E-7;0;Orbcomm
14.72589786;0.0008177;48.4422;115.4529;179.8464;180.2452;2.0761E-5;-6.8E-7;0;Orbcomm
14.72589864;0.0008178;48.4422;114.1773;180.9522;179.1376;2.1061E-5;-6.6E-7;0;Orbcomm
14.72590134;0.0008208;48.4424;109.7123;184.9264;175.1569;2.1547E-5;-6.3E-7;0;Orbcomm
14.725905;0.0008246;48.4426;103.3338;190.6248;169.4491;2.1141E-5;-6.5E-7;0;Orbcomm
14.72590521;0.0008247;48.4426;103.0148;190.8956;169.1779;2.1304E-5;-6.4E-7;0;Orbcomm
14.72590763;0.0008266;48.4427;100.4635;193.1049;166.9649;2.2792E-5;-5.5E-7;0;Orbcomm
14.72590828;0.0008275;48.4427;98.8688;194.5258;165.5417;2.1745E-5;-6.2E-7;0;Orbcomm
14.72590909;0.0008291;48.4428;96.9553;196.1666;163.8982;2.079E-5;-6.8E-7;0;Orbcomm
14.72590993;0.0008296;48.4428;95.6796;197.2829;162.7802;2.0785E-5;-6.8E-7;0;Orbcomm
14.72591125;0.0008311;48.4429;93.4471;199.257;160.8029;2.0669E-5;-6.8E-7;0;Orbcomm
14.72591216;0.0008328;48.4429;92.1714;200.3757;159.6824;2.0734E-5;-6.8E-7;0;Orbcomm
14.72591281;0.0008332;48.4429;91.2146;201.2064;158.8504;2.0827E-5;-6.7E-7;0;Orbcomm
14.72591526;0.0008359;48.4431;86.4308;205.343;154.7073;1.9623E-5;-7.5E-7;0;Orbcomm
14.72591765;0.0008394;48.4432;81.9658;209.2535;150.7908;1.9084E-5;-7.9E-7;0;Orbcomm
14.72592015;0.0008421;48.4434;78.1387;212.601;147.4383;1.9851E-5;-7.4E-7;0;Orbcomm
14.72592083;0.0008425;48.4434;77.1819;213.4228;146.6153;2.0066E-5;-7.2E-7;0;Orbcomm
14.7259227;0.0008458;48.4435;73.3548;216.7535;143.2798;1.9786E-5;-7.4E-7;0;Orbcomm
14.72592527;0.000848;48.4437;68.571;220.8648;139.1629;1.9634E-5;-7.5E-7;0;Orbcomm
14.72592554;0.0008479;48.4437;68.252;221.1292;138.8981;1.982E-5;-7.4E-7;0;Orbcomm
14.72592853;0.0008504;48.4439;63.4683;225.2371;134.785;2.0849E-5;-6.7E-7;0;Orbcomm
14.72593011;0.0008523;48.4441;60.5979;227.7062;132.3128;2.0312E-5;-7.1E-7;0;Orbcomm
14.7259313;0.0008529;48.4441;58.6846;229.3307;130.6864;2.0733E-5;-6.8E-7;0;Orbcomm
14.72593448;0.000855;48.4442;55.8143;231.776;128.2382;2.4121E-5;-4.6E-7;0;Orbcomm
14.72593651;0.000855;48.4443;54.2198;233.1165;126.8964;2.6857E-5;-2.9E-7;0;Orbcomm
14.72593723;0.0008562;48.4443;51.3495;235.5324;124.478;2.3069E-5;-5.3E-7;0;Orbcomm
14.72594099;0.0008579;48.4444;46.5659;239.5989;120.4076;2.3956E-5;-4.7E-7;0;Orbcomm
14.72594171;0.000858;48.4444;45.2903;240.6599;119.3456;2.3984E-5;-4.7E-7;0;Orbcomm
14.72594588;0.0008599;48.4444;41.7822;243.6319;116.3711;2.7044E-5;-2.7E-7;0;Orbcomm
14.72594754;0.0008599;48.4444;40.5066;244.7289;115.2733;2.9201E-5;-1.4E-7;0;Orbcomm
14.72594897;0.0008614;48.4445;36.9985;247.7036;112.2963;2.5505E-5;-3.7E-7;0;Orbcomm
14.72595008;0.0008613;48.4445;35.7229;248.8241;111.1751;2.6158E-5;-3.3E-7;0;Orbcomm
14.72595212;0.0008621;48.4445;32.2148;251.7512;108.2462;2.4155E-5;-4.6E-7;0;Orbcomm
14.72595434;0.0008615;48.4445;30.9392;252.8384;107.1585;2.7502E-5;-2.5E-7;0;Orbcomm
14.72595538;0.0008629;48.4445;27.7499;255.4954;104.5001;2.3887E-5;-4.8E-7;0;Orbcomm
14.72595818;0.0008631;48.4446;23.2851;259.2541;100.7399;2.2637E-5;-5.6E-7;0;Orbcomm
14.72595837;0.0008631;48.4446;22.9662;259.5235;100.4705;2.2736E-5;-5.5E-7;0;Orbcomm
14.72596104;0.0008634;48.4446;18.5013;263.2452;96.7477;2.192E-5;-6.0E-7;0;Orbcomm
14.72596113;0.0008631;48.4446;18.1824;263.5185;96.4745;2.1841E-5;-6.1E-7;0;Orbcomm
14.72596264;0.0008631;48.4446;16.5879;264.8654;95.1273;2.2619E-5;-5.6E-7;0;Orbcomm
14.72596378;0.0008624;48.4446;13.7176;267.1947;92.7978;2.0845E-5;-6.7E-7;0;Orbcomm
14.72596605;0.0008625;48.4445;8.9339;271.2125;88.7799;1.9711E-5;-7.5E-7;0;Orbcomm
14.72596647;0.0008625;48.4445;7.9772;272.1043;87.8881;1.9555E-5;-7.6E-7;0;Orbcomm
14.72596792;0.0008624;48.4445;4.4691;274.977;85.0157;1.7888E-5;-8.6E-7;0;Orbcomm
14.72596842;0.0008624;48.4444;3.1935;276.1699;83.8231;1.779E-5;-8.7E-7;0;Orbcomm
14.72596974;0.0008624;48.4444;359.6853;279.0663;80.9273;1.6951E-5;-9.2E-7;0;Orbcomm
14.72597168;0.0008616;48.4443;355.2204;282.8044;77.1905;1.6292E-5;-9.7E-7;0;Orbcomm
14.72597176;0.0008616;48.4443;354.9015;283.0948;76.9002;1.6312E-5;-9.7E-7;0;Orbcomm
14.72597383;0.0008611;48.4442;350.4366;286.8892;73.1076;1.6593E-5;-9.5E-7;0;Orbcomm
14.725974;0.000861;48.4442;350.1177;287.1809;72.816;1.6802E-5;-9.3E-7;0;Orbcomm
14.72597617;0.0008596;48.4441;345.6527;290.9362;69.0629;1.685E-5;-9.3E-7;0;Orbcomm
14.72597635;0.0008595;48.4441;345.3338;291.2333;68.7661;1.7084E-5;-9.2E-7;0;Orbcomm
